SAR-LUPE 2              
1 31797U 07030A   26194.26548230  .00032563  00000+0  51178-3 0  9992
2 31797  98.1059 302.0129 0004677 208.2397 151.8602 15.53570206 60983
SAPPHIRE                
1 39088U 13009C   26194.30491188  .00000046  00000+0  30844-4 0  9999
2 39088  98.4272  13.1420 0011473 165.3754 194.7766 14.35247259700324
PRAETORIAN SDA_602      
1 65565U 25203A   26193.90476847  .00000029  00000+0  15299-4 0  9995
2 65565  81.3041 346.9559 0007014 122.9336 237.2496 13.83887795 42250
PRAETORIAN SDA_603      
1 65566U 25203B   26193.93317551  .00000141  00000+0  11579-3 0  9996
2 65566  81.3046 346.8513 0010711 120.5854 239.6361 13.83962262 42263
PRAETORIAN SDA_604      
1 65567U 25203C   26193.89690792  .00000032  00000+0  18275-4 0  9993
2 65567  81.3063 347.3371 0006519 126.5576 233.6181 13.83049973 42235
PRAETORIAN SDA_605      
1 65568U 25203D   26193.92918145  .00000015  00000+0  26974-5 0  9990
2 65568  81.3028 346.9494 0009276 118.5758 241.6333 13.83199796 42253
PRAETORIAN SDA_606      
1 65569U 25203E   26193.91435519  .00000031  00000+0  17498-4 0  9997
2 65569  81.3064 347.2003 0007117 121.2788 238.9066 13.83200006 42248
PRAETORIAN SDA_607      
1 65570U 25203F   26193.90563286  .00000140  00000+0  11567-3 0  9992
2 65570  81.3046 346.8309 0009838 120.1176 240.0957 13.83759300 42266
PRAETORIAN SDA_608      
1 65571U 25203G   26193.88825855  .00000035  00000+0  20417-4 0  9991
2 65571  81.3017 347.0117 0007007 125.5513 234.6298 13.83819283 42247
PRAETORIAN SDA_609      
1 65572U 25203H   26193.88588977  .00000152  00000+0  12544-3 0  9994
2 65572  81.3060 346.9926 0007879 120.2436 239.9502 13.84211773 42253
PRAETORIAN SDA_610      
1 65573U 25203J   26189.89209177  .00000045  00000+0  29958-4 0  9992
2 65573  81.3015 350.6711 0007648 134.1093 226.0694 13.83769338 41695
PRAETORIAN SDA_611      
1 65574U 25203K   26193.87821690  .00000115  00000+0  94112-4 0  9998
2 65574  81.3019 347.1643 0006552 128.7450 231.4293 13.83311314 42237
PRAETORIAN SDA_612      
1 65575U 25203L   26193.90801260  .00000180  00000+0  14862-3 0  9999
2 65575  81.3034 346.6599 0010191 120.5128 239.7037 13.85041868 42272
PRAETORIAN SDA_613      
1 65576U 25203M   26193.89505781  .00000038  00000+0  23875-4 0  9994
2 65576  81.3010 347.1662 0006729 120.0616 240.1208 13.82767541 42235
PRAETORIAN SDA_614      
1 65577U 25203N   26193.90204833  .00000023  00000+0  96105-5 0  9992
2 65577  81.3024 346.7500 0008181 118.5866 241.6115 13.84778456 42276
PRAETORIAN SDA_615      
1 65578U 25203P   26193.88526312  .00000098  00000+0  76893-4 0  9992
2 65578  81.3034 346.7458 0010108 119.4297 240.7870 13.84438408 42267
PRAETORIAN SDA_616      
1 65579U 25203Q   26193.87815056  .00010086  00000+0  91829-2 0  9990
2 65579  81.3058 347.3296 0006605 124.3682 235.8100 13.83202509 42239
PRAETORIAN SDA_617      
1 65580U 25203R   26193.90199358  .00000037  00000+0  22730-4 0  9998
2 65580  81.3048 347.1340 0008443 118.9586 241.2418 13.83151966 42246
PRAETORIAN SDA_618      
1 65581U 25203S   26193.92453586  .00000151  00000+0  12447-3 0  9997
2 65581  81.3031 346.6406 0010815 122.3406 237.8799 13.84225527 42274
PRAETORIAN SDA_619      
1 65582U 25203T   26193.89895328  .00000131  00000+0  10717-3 0  9994
2 65582  81.3050 346.9908 0009157 119.9129 240.2938 13.83806643 42880
PRAETORIAN SDA_620      
1 65583U 25203U   26193.93306013  .00000129  00000+0  10642-3 0  9992
2 65583  81.3043 346.9896 0008600 116.5793 243.6245 13.83206735 42256
PRAETORIAN SDA_621      
1 65584U 25203V   26193.90078803  .00000021  00000+0  78443-5 0  9999
2 65584  81.3031 346.9217 0008463 114.2437 245.9605 13.83803647 42258
PRAETORIAN SDA_601      
1 65585U 25203W   26193.88318968  .00000164  00000+0  13919-3 0  9999
2 65585  81.3047 347.2636 0006615 129.9623 230.2115 13.83169428 42235
VICTUS HAZE PUMA        
1 69646U 26142A   26194.27140633  .00002093  00000+0  97284-4 0  9991
2 69646  97.4472  91.5972 0025029 273.0497  86.7874 15.20839796  3631
